UNKNOWN                 
1 82829U          25146.67316992 -.00000153  00000+0 -31022-2 0  9990
2 82829  65.1035  19.6503 0167934  17.5331  14.3987 11.29095809463497
UNKNOWN                 
1 82854U          25144.96288235  .00001725  00000+0  13580-2 0  9999
2 82854  82.6908 222.6982 0135125 133.3064 227.9461 13.87060136 52182
UNKNOWN                 
1 82873U          25146.36481738  .00002475  00000+0  11157-2 0  9990
2 82873 100.0095  13.3689 0040485 117.7667 242.7621 14.22901487592728
UNKNOWN                 
1 82875U          25123.71473535  .00000699  00000+0  19529-3 0  9990
2 82875  98.6554 112.9119 0379185 202.6710 155.7327 14.14687551512936
UNKNOWN                 
1 82893U          25146.55827901  .00005326  00000+0  21588-2 0  9996
2 82893  98.9600 255.9743 0024556 256.8537 102.9902 14.27968071395372
UNKNOWN                 
1 82912U          25145.62618324  .00000885  00000+0  40807-3 0  9993
2 82912  65.8339 277.0306 0775825   0.2274 359.8973 13.26260552552640
UNKNOWN                 
1 82961U          25145.18221595  .00007985  00000+0  12463-1 0  9991
2 82961  99.9082 310.2332 0433267 120.8955 243.5513 13.18842860529105
UNKNOWN                 
1 82965U 70025    25143.15838294  .00000973  00000+0  13789-2 0  9997
2 82965 100.1219 216.0946 0002511 146.1122 214.0177 13.59510770496784
UNKNOWN                 
1 83903U          25146.55916115  .00000054  00000+0  00000+0 0  9991
2 83903   6.6749 292.4193 0123880 244.3516 125.8819  0.99113841 41683
UNKNOWN                 
1 83934U          25146.45988947 -.00000151  00000+0  00000+0 0  9995
2 83934   6.2325 298.9139 0221688 265.2194 333.0605  1.02661285 43226
UNKNOWN                 
1 83970U          25146.34541552  .00005518  00000+0  61409-2 0  9994
2 83970  18.2728  86.1975 5080006  85.6734 328.2402  5.30191990185546
UNKNOWN                 
1 84006U          25143.18040418 -.00000083  00000+0  00000+0 0  9999
2 84006  22.8308 217.3291 6084604 351.2338   1.8318  2.16230095 79826
UNKNOWN                 
1 84188U          25145.92955408  .00269002  00000+0  16752+0 0  9996
2 84188  65.1472  56.6271 4100429  38.8469 344.5296  6.97924289 26772
UNKNOWN                 
1 84232U 79104    25143.41145381  .00008702  00000+0  58447-2 0  9998
2 84232  20.5319  29.2863 6597304 216.0259  72.7338  3.13610893 98281
UNKNOWN                 
1 84236U          25146.23094239 -.00000033  00000+0 -17524-3 0  9992
2 84236   9.3024  65.0958 6887229 276.7748  15.5162  2.62468607197434
UNKNOWN                 
1 84292U          25146.46876664  .00003999  00000+0  18474-2 0  9995
2 84292  23.8282  77.4009 4589978 118.0956 295.4345  6.19628295215625
UNKNOWN                 
1 84406U          25143.67993103  .00000287  00000+0  17386-2 0  9998
2 84406 101.7127 285.3227 0046171  86.7644 292.8550 12.67073716 23596
UNKNOWN                 
1 84407U          25145.25427964 -.00000695  00000+0 -25497-1 0  9998
2 84407  19.5855  21.4830 7204150 314.0101   5.7596  2.05777567 71720
UNKNOWN                 
1 84437U          25140.58730937  .00000124  00000+0  00000+0 0  9995
2 84437  18.9791 307.9049 7015058 166.7209 231.8092  1.97297103  8879
UNKNOWN                 
1 84932U          25145.97644918  .00000101  00000+0  13913-2 0  9991
2 84932   2.3589 348.4430 6548034 204.5918  30.6631  2.99651880125757
UNKNOWN                 
1 84950U          25126.62830235 -.00000411  00000+0  00000+0 0  9996
2 84950   1.8213 108.1371 6949888  67.0662 170.1890  2.04220595 85494
UNKNOWN                 
1 85004U          25145.16169190  .00001012  00000+0  32687-3 0  9999
2 85004  98.3967 119.6104 0048736  49.4256  12.3719 14.40498081601875
UNKNOWN                 
1 85010U          25146.12816451  .00000917  00000+0  10095-2 0  9993
2 85010  99.2665  14.0909 0027859  59.6935  92.2213 13.74571219576359
UNKNOWN                 
1 85015U          25142.53295962  .00000474  00000+0  10040-3 0  9996
2 85015  74.0488  68.8861 0014047  23.5101 336.6705 14.62005978612761
UNKNOWN                 
1 85023U          25145.17033659  .00014875  00000+0  28786-2 0  9996
2 85023  99.8500 120.0465 0002811 105.9206 318.8881 14.63457086599266
UNKNOWN                 
1 85027U          25145.63925551  .00000104  00000+0  17237-3 0  9992
2 85027  66.0413 233.9497 0184676 293.7692  64.4100 13.74144528576980
UNKNOWN                 
1 85047U          25146.25383083  .00011965  00000+0  21071-1 0  9997
2 85047 102.3653  69.0031 0149978  84.9903 276.8316 13.38737110549786
UNKNOWN                 
1 85061U          25142.19014759  .00003423  00000+0  14361-1 0  9997
2 85061 102.4281 107.6766 0248638 229.3369 148.2894 12.75190549529698
UNKNOWN                 
1 85100U          25146.50773398  .00000285  00000+0  97892-4 0  9997
2 85100  74.0460 232.8942 0011831 155.3957 222.6888 14.40516794604519
UNKNOWN                 
1 85106U          25146.00143564  .00000504  00000+0  60249-3 0  9993
2 85106 100.0534 237.0721 0010716 160.3770  19.3699 13.72615005575527
UNKNOWN                 
1 85151U 86019    25145.38899427  .00009998  00000+0  16501-2 0  9990
2 85151  98.4172   2.0386 0012590  60.5197 299.7263 14.70583258449870
UNKNOWN                 
1 85210U 75052    25145.62951350  .00000723  00000+0  72563-3 0  9990
2 85210  99.8400 281.4037 0217613 109.9572 269.4215 13.71111369574598
UNKNOWN                 
1 85217U          25146.24384595  .00001214  00000+0  33675-3 0  9995
2 85217  98.0255 254.0217 0211564  13.9540 346.7371 14.35891096599073
UNKNOWN                 
1 85237U          25143.66780774  .00004381  00000+0  97447-3 0  9994
2 85237  65.5394  26.4532 0518398 121.5389 243.7394 13.98252125579937
UNKNOWN                 
1 85238U          25145.10248609  .00000028  00000+0  58018-4 0  9998
2 85238  99.0470  80.2784 0063941  26.9529 345.3405 13.88300614582869
UNKNOWN                 
1 85246U          25146.52019106  .00000945  00000+0  35291-3 0  9997
2 85246  97.9900 168.8599 0225401 173.7569 186.6505 14.20803954594633
UNKNOWN                 
1 85373U          25146.52952314  .00002222  00000+0  15618-2 0  9995
2 85373 100.4374 155.0248 0047559  47.5461 104.4674 13.98935280584123
UNKNOWN                 
1 87014U          25145.82171162  .00002008  00000+0  31639-2 0  9998
2 87014 100.5135  98.9605 0055593   8.7767  20.4371 13.50782984563789
UNKNOWN                 
1 87029U 99025    25133.33560288  .00001477  00000+0  93145-3 0  9993
2 87029  98.7733 175.9772 0084399 128.0488 232.8334 14.03969201563056
UNKNOWN                 
1 87042U 00055    25146.40953680  .00000742  00000+0  46893-3 0  9999
2 87042  98.7332 196.6297 0041874 300.0126  59.6892 14.06724157525795
UNKNOWN                 
1 87051U 76126    25145.35762238  .00000901  00000+0  31814-3 0  9995
2 87051  65.7296  14.0638 0733277 232.3502 120.8832 13.44797309561492
UNKNOWN                 
1 87054U 75052    25146.54965245  .00002194  00000+0  12733-2 0  9994
2 87054 100.1062   1.5069 0013049 160.1776 199.9900 14.09998613588101
UNKNOWN                 
1 87071U 68097    25143.60107665  .00002490  00000+0  88304-3 0  9999
2 87071  61.2147 154.2992 0505734 137.9803 226.1195 13.83156154574361
UNKNOWN                 
1 87074U 77121    25145.09549818  .00000213  00000+0  29920-3 0  9995
2 87074  66.1434  27.7536 0145186  16.6974 343.8796 13.71401794575532
UNKNOWN                 
1 87113U 76126    25145.95471518  .00046268  00000+0  16060-2 0  9999
2 87113  65.6251 347.9535 0119307 302.3737  56.5896 15.22921824605094
UNKNOWN                 
1 87129U 76077    25143.66806767  .00000102  00000+0  10714-2 0  9992
2 87129 102.2618 232.2008 0034296 104.6427 255.8443 12.42725783521442
UNKNOWN                 
1 87159U          25145.73539028  .00001083  00000+0  12643-2 0  9993
2 87159  90.3457  62.2116 0108663 132.0338 229.0134 13.65507847529252
UNKNOWN                 
1 87163U 76126    25145.02692294  .00002631  00000+0  80311-3 0  9995
2 87163  65.5990  13.2048 0653568 154.8230 208.6262 13.62415893550025
UNKNOWN                 
1 87164U          25145.53459976  .00002976  00000+0  64741-3 0  9999
2 87164  65.2030 190.8961 0105626 150.4145 210.2988 14.56252419606458
UNKNOWN                 
1 87204U          25146.06973087  .00001646  00000+0  66936-3 0  9998
2 87204  98.5580  10.8980 0045364 191.9582 168.0526 14.28298029596789
UNKNOWN                 
1 87211U          25145.22553516  .00003190  00000+0  91613-3 0  9990
2 87211  99.0752 131.0418 0056269  38.9387 336.9909 14.44716793678665
UNKNOWN                 
1 87214U 70025    25146.38351699  .00002234  00000+0  20347-2 0  9996
2 87214 100.3223 125.6317 0077887  46.7873 313.9748 13.83228653572530
UNKNOWN                 
1 87237U 99025    25138.63017476  .00000453  00000+0  37515-3 0  9990
2 87237  99.2783 194.2851 0104840 126.5031  25.7288 13.91555453582819
UNKNOWN                 
1 87239U 81053    25146.28019576  .00005986  00000+0  16077-2 0  9992
2 87239  82.8750 252.3804 0018345 312.2390  47.7249 14.47895274598833
UNKNOWN                 
1 87245U 71015    25146.45502922  .00005818  00000+0  11595-2 0  9991
2 87245  65.6578 222.1688 0454727 219.8416 158.8055 14.13281629585887
UNKNOWN                 
1 87271U 71015    25146.14835267  .00003257  00000+0  61540-3 0  9998
2 87271  65.7565  53.9032 0442171 178.8775 181.3418 14.18121005583897
UNKNOWN                 
1 87280U          25146.36038759  .00000224  00000+0  47135-3 0  9994
2 87280  64.6170  10.8701 0127236 301.2488  57.6137 13.48352360506831
UNKNOWN                 
1 87293U 71015    25146.45110575  .00007614  00000+0  16235-2 0  9995
2 87293  65.8971 315.8228 0429867 110.0620 254.7265 14.14683663585632
UNKNOWN                 
1 87300U 70025    25146.61393885  .00001470  00000+0  10553-2 0  9990
2 87300 100.0730 109.3538 0030865 102.3340 258.1278 13.98652045585133
